1 08820U 76039A   03343.80819662  .00000003  00000-0  10000-3 0  9948
2 08820 109.8326 241.7250 0044336 263.8516  95.7144  6.38664631388272
